[{"OBJECT_NAME":"STARLINK-32600","OBJECT_ID":"2024-225R","EPOCH":"2026-03-09T15:11:36.351168","MEAN_MOTION":14.98350761,"ECCENTRICITY":0.0003012,"INCLINATION":70.0026,"RA_OF_ASC_NODE":154.7094,"ARG_OF_PERICENTER":264.8696,"MEAN_ANOMALY":95.2119,"EPHEMERIS_TYPE":0,"CLASSIFICATION_TYPE":"U","NORAD_CAT_ID":62178,"ELEMENT_SET_NO":999,"REV_AT_EPOCH":7011,"BSTAR":0.00086211,"MEAN_MOTION_DOT":0.00010214,"MEAN_MOTION_DDOT":0},{"OBJECT_NAME":"FENGYUN 1C DEB","OBJECT_ID":"1999-025AYA","EPOCH":"2026-03-09T23:00:33.421824","MEAN_MOTION":14.97109165,"ECCENTRICITY":0.00762057,"INCLINATION":99.4912,"RA_OF_ASC_NODE":70.9716,"ARG_OF_PERICENTER":234.2891,"MEAN_ANOMALY":125.1218,"EPHEMERIS_TYPE":0,"CLASSIFICATION_TYPE":"U","NORAD_CAT_ID":30888,"ELEMENT_SET_NO":999,"REV_AT_EPOCH":1220,"BSTAR":0.0012389306,"MEAN_MOTION_DOT":0.0001511,"MEAN_MOTION_DDOT":0}]
